CCSDS_OMM_VERS = 2.0
CREATION_DATE  = 
ORIGINATOR     = 

OBJECT_NAME    = STARLINK-36390
OBJECT_ID      = 2026-035H
CENTER_NAME    = EARTH
REF_FRAME      = TEME
TIME_SYSTEM    = UTC
MEAN_ELEMENT_THEORY = SGP/SGP4

EPOCH          = 2026-03-05T20:00:00.999360
MEAN_MOTION    = 15.96565308
ECCENTRICITY   = .0001142
INCLINATION    = 97.2741
RA_OF_ASC_NODE = 356.8845
ARG_OF_PERICENTER = 80.4304
MEAN_ANOMALY   = 4.3306

EPHEMERIS_TYPE = 0
CLASSIFICATION_TYPE = U
NORAD_CAT_ID   = 67886
ELEMENT_SET_NO = 999
REV_AT_EPOCH   = 318
BSTAR          = -.2475E-2
MEAN_MOTION_DOT = -.1033494E-1
MEAN_MOTION_DDOT = .33552E-3

CCSDS_OMM_VERS = 2.0
CREATION_DATE  = 
ORIGINATOR     = 

OBJECT_NAME    = STARLINK-36368
OBJECT_ID      = 2026-035J
CENTER_NAME    = EARTH
REF_FRAME      = TEME
TIME_SYSTEM    = UTC
MEAN_ELEMENT_THEORY = SGP/SGP4

EPOCH          = 2026-03-05T20:00:00.999360
MEAN_MOTION    = 15.96651765
ECCENTRICITY   = .000117
INCLINATION    = 97.2742
RA_OF_ASC_NODE = 356.8862
ARG_OF_PERICENTER = 86.3694
MEAN_ANOMALY   = 2.6953

EPHEMERIS_TYPE = 0
CLASSIFICATION_TYPE = U
NORAD_CAT_ID   = 67887
ELEMENT_SET_NO = 999
REV_AT_EPOCH   = 313
BSTAR          = -.25032E-2
MEAN_MOTION_DOT = -.1050049E-1
MEAN_MOTION_DDOT = .34587E-3

CCSDS_OMM_VERS = 2.0
CREATION_DATE  = 
ORIGINATOR     = 

OBJECT_NAME    = STARLINK-36801
OBJECT_ID      = 2026-035K
CENTER_NAME    = EARTH
REF_FRAME      = TEME
TIME_SYSTEM    = UTC
MEAN_ELEMENT_THEORY = SGP/SGP4

EPOCH          = 2026-03-05T20:00:00.999360
MEAN_MOTION    = 15.96743237
ECCENTRICITY   = .0001213
INCLINATION    = 97.2737
RA_OF_ASC_NODE = 356.8881
ARG_OF_PERICENTER = 87.8299
MEAN_ANOMALY   = 5.3854

EPHEMERIS_TYPE = 0
CLASSIFICATION_TYPE = U
NORAD_CAT_ID   = 67888
ELEMENT_SET_NO = 999
REV_AT_EPOCH   = 313
BSTAR          = -.25409E-2
MEAN_MOTION_DOT = -.1071009E-1
MEAN_MOTION_DDOT = .35913E-3

CCSDS_OMM_VERS = 2.0
CREATION_DATE  = 
ORIGINATOR     = 

OBJECT_NAME    = STARLINK-36372
OBJECT_ID      = 2026-035L
CENTER_NAME    = EARTH
REF_FRAME      = TEME
TIME_SYSTEM    = UTC
MEAN_ELEMENT_THEORY = SGP/SGP4

EPOCH          = 2026-03-05T20:00:00.999360
MEAN_MOTION    = 15.96932544
ECCENTRICITY   = .0001218
INCLINATION    = 97.2731
RA_OF_ASC_NODE = 356.8911
ARG_OF_PERICENTER = 95.1494
MEAN_ANOMALY   = 6.0658

EPHEMERIS_TYPE = 0
CLASSIFICATION_TYPE = U
NORAD_CAT_ID   = 67889
ELEMENT_SET_NO = 999
REV_AT_EPOCH   = 313
BSTAR          = -.2685E-2
MEAN_MOTION_DOT = -.1142807E-1
MEAN_MOTION_DDOT = .40581E-3

CCSDS_OMM_VERS = 2.0
CREATION_DATE  = 
ORIGINATOR     = 

OBJECT_NAME    = STARLINK-36363
OBJECT_ID      = 2026-035M
CENTER_NAME    = EARTH
REF_FRAME      = TEME
TIME_SYSTEM    = UTC
MEAN_ELEMENT_THEORY = SGP/SGP4

EPOCH          = 2026-03-05T20:00:00.999360
MEAN_MOTION    = 15.96835291
ECCENTRICITY   = .0001285
INCLINATION    = 97.2736
RA_OF_ASC_NODE = 356.8902
ARG_OF_PERICENTER = 91.2740
MEAN_ANOMALY   = 6.6019

EPHEMERIS_TYPE = 0
CLASSIFICATION_TYPE = U
NORAD_CAT_ID   = 67890
ELEMENT_SET_NO = 999
REV_AT_EPOCH   = 313
BSTAR          = -.26175E-2
MEAN_MOTION_DOT = -.1108515E-1
MEAN_MOTION_DDOT = .38315E-3

CCSDS_OMM_VERS = 2.0
CREATION_DATE  = 
ORIGINATOR     = 

OBJECT_NAME    = STARLINK-36816
OBJECT_ID      = 2026-035N
CENTER_NAME    = EARTH
REF_FRAME      = TEME
TIME_SYSTEM    = UTC
MEAN_ELEMENT_THEORY = SGP/SGP4

EPOCH          = 2026-03-05T20:00:00.999360
MEAN_MOTION    = 15.97820871
ECCENTRICITY   = .0001244
INCLINATION    = 97.2719
RA_OF_ASC_NODE = 356.9145
ARG_OF_PERICENTER = 84.1819
MEAN_ANOMALY   = 76.8127

EPHEMERIS_TYPE = 0
CLASSIFICATION_TYPE = U
NORAD_CAT_ID   = 67891
ELEMENT_SET_NO = 999
REV_AT_EPOCH   = 302
BSTAR          = -.2822E-2
MEAN_MOTION_DOT = -.1259758E-1
MEAN_MOTION_DDOT = .49064E-3

CCSDS_OMM_VERS = 2.0
CREATION_DATE  = 
ORIGINATOR     = 

OBJECT_NAME    = STARLINK-36813
OBJECT_ID      = 2026-035P
CENTER_NAME    = EARTH
REF_FRAME      = TEME
TIME_SYSTEM    = UTC
MEAN_ELEMENT_THEORY = SGP/SGP4

EPOCH          = 2026-03-05T20:00:00.999360
MEAN_MOTION    = 15.97381270
ECCENTRICITY   = .0001246
INCLINATION    = 97.2713
RA_OF_ASC_NODE = 356.9032
ARG_OF_PERICENTER = 81.3158
MEAN_ANOMALY   = 52.9623

EPHEMERIS_TYPE = 0
CLASSIFICATION_TYPE = U
NORAD_CAT_ID   = 67892
ELEMENT_SET_NO = 999
REV_AT_EPOCH   = 313
BSTAR          = -.28297E-2
MEAN_MOTION_DOT = -.1233369E-1
MEAN_MOTION_DDOT = .46957E-3

CCSDS_OMM_VERS = 2.0
CREATION_DATE  = 
ORIGINATOR     = 

OBJECT_NAME    = STARLINK-36803
OBJECT_ID      = 2026-035Q
CENTER_NAME    = EARTH
REF_FRAME      = TEME
TIME_SYSTEM    = UTC
MEAN_ELEMENT_THEORY = SGP/SGP4

EPOCH          = 2026-03-05T20:00:00.999360
MEAN_MOTION    = 15.97013559
ECCENTRICITY   = .0001307
INCLINATION    = 97.2730
RA_OF_ASC_NODE = 356.8930
ARG_OF_PERICENTER = 87.6587
MEAN_ANOMALY   = 18.5335

EPHEMERIS_TYPE = 0
CLASSIFICATION_TYPE = U
NORAD_CAT_ID   = 67893
ELEMENT_SET_NO = 999
REV_AT_EPOCH   = 313
BSTAR          = -.28273E-2
MEAN_MOTION_DOT = -.1208094E-1
MEAN_MOTION_DDOT = .45014E-3

CCSDS_OMM_VERS = 2.0
CREATION_DATE  = 
ORIGINATOR     = 

OBJECT_NAME    = STARLINK-36846
OBJECT_ID      = 2026-035R
CENTER_NAME    = EARTH
REF_FRAME      = TEME
TIME_SYSTEM    = UTC
MEAN_ELEMENT_THEORY = SGP/SGP4

EPOCH          = 2026-03-05T20:00:00.999360
MEAN_MOTION    = 15.97123547
ECCENTRICITY   = .0001415
INCLINATION    = 97.2727
RA_OF_ASC_NODE = 356.8973
ARG_OF_PERICENTER = 101.6642
MEAN_ANOMALY   = 14.6668

EPHEMERIS_TYPE = 0
CLASSIFICATION_TYPE = U
NORAD_CAT_ID   = 67894
ELEMENT_SET_NO = 999
REV_AT_EPOCH   = 313
BSTAR          = -.28336E-2
MEAN_MOTION_DOT = -.1217994E-1
MEAN_MOTION_DDOT = .45752E-3

CCSDS_OMM_VERS = 2.0
CREATION_DATE  = 
ORIGINATOR     = 

OBJECT_NAME    = STARLINK-36866
OBJECT_ID      = 2026-035S
CENTER_NAME    = EARTH
REF_FRAME      = TEME
TIME_SYSTEM    = UTC
MEAN_ELEMENT_THEORY = SGP/SGP4

EPOCH          = 2026-03-05T20:00:00.999360
MEAN_MOTION    = 15.97189368
ECCENTRICITY   = .0001292
INCLINATION    = 97.2726
RA_OF_ASC_NODE = 356.8990
ARG_OF_PERICENTER = 78.3109
MEAN_ANOMALY   = 42.4767

EPHEMERIS_TYPE = 0
CLASSIFICATION_TYPE = U
NORAD_CAT_ID   = 67895
ELEMENT_SET_NO = 999
REV_AT_EPOCH   = 313
BSTAR          = -.28466E-2
MEAN_MOTION_DOT = -.1227859E-1
MEAN_MOTION_DDOT = .46473E-3

CCSDS_OMM_VERS = 2.0
CREATION_DATE  = 
ORIGINATOR     = 

OBJECT_NAME    = STARLINK-36877
OBJECT_ID      = 2026-035T
CENTER_NAME    = EARTH
REF_FRAME      = TEME
TIME_SYSTEM    = UTC
MEAN_ELEMENT_THEORY = SGP/SGP4

EPOCH          = 2026-03-05T20:00:00.999360
MEAN_MOTION    = 15.97059310
ECCENTRICITY   = .0001317
INCLINATION    = 97.2728
RA_OF_ASC_NODE = 356.8951
ARG_OF_PERICENTER = 80.2361
MEAN_ANOMALY   = 31.2261

EPHEMERIS_TYPE = 0
CLASSIFICATION_TYPE = U
NORAD_CAT_ID   = 67896
ELEMENT_SET_NO = 999
REV_AT_EPOCH   = 313
BSTAR          = -.28037E-2
MEAN_MOTION_DOT = -.1201065E-1
MEAN_MOTION_DDOT = .44553E-3

CCSDS_OMM_VERS = 2.0
CREATION_DATE  = 
ORIGINATOR     = 

OBJECT_NAME    = STARLINK-36870
OBJECT_ID      = 2026-035U
CENTER_NAME    = EARTH
REF_FRAME      = TEME
TIME_SYSTEM    = UTC
MEAN_ELEMENT_THEORY = SGP/SGP4

EPOCH          = 2026-03-05T20:00:00.999360
MEAN_MOTION    = 15.97246647
ECCENTRICITY   = .0001311
INCLINATION    = 97.2723
RA_OF_ASC_NODE = 356.9007
ARG_OF_PERICENTER = 83.0569
MEAN_ANOMALY   = 42.7749

EPHEMERIS_TYPE = 0
CLASSIFICATION_TYPE = U
NORAD_CAT_ID   = 67897
ELEMENT_SET_NO = 999
REV_AT_EPOCH   = 313
BSTAR          = -.28426E-2
MEAN_MOTION_DOT = -.1229976E-1
MEAN_MOTION_DDOT = .4665E-3

